STARLINK-30463          
1 57909U 23146U   26068.11731699 -.00000609  00000+0 -29994-4 0  9998
2 57909  43.0040 316.1563 0001111 265.2503  94.8213 15.02533398135921
QPS-SAR-11 (YAMATSUMI-I)
1 64340U 25125A   26068.25519236  .00007204  00000+0  57385-3 0  9990
2 64340  42.0098  22.3823 0010044 210.0400 149.9850 15.00627459 40603
